{"type": "FeatureCollection", "features": [ {"type": "Feature", "properties": {"norad_id": 37834, "name": "INTELSAT 18 (IS-18)", "group": "intelsat", "lat": -0.020019067208617614, "lon": 161.40481194382562, "alt_km": 35789.9039769503, "timestamp": "2025-12-20T16:47:35.958943+00:00", "meta": {"OBJECT_NAME": "INTELSAT 18 (IS-18)", "OBJECT_ID": "2011-056A", "EPOCH": "2025-12-20T08:45:38.947104", "MEAN_MOTION": 1.0027236, "ECCENTRICITY": 0.0001664, "INCLINATION": 0.0337, "RA_OF_ASC_NODE": 280.0178, "ARG_OF_PERICENTER": 6.1929, "MEAN_ANOMALY": 114.4011, "EPHEMERIS_TYPE": 0, "CLASSIFICATION_TYPE": "U", "NORAD_CAT_ID": 37834, "ELEMENT_SET_NO": 999, "REV_AT_EPOCH": 5201, "BSTAR": 0, "MEAN_MOTION_DOT": 7.7e-07, "MEAN_MOTION_DDOT": 0}, "tle": {"line1": "1 37834U 11056A   25354.36503411  .00000077  00000+0  00000+0 0  9992", "line2": "2 37834   0.0337 280.0178 0001664   6.1929 114.4011  1.00272360 52011"}}, "geometry": {"type": "Point", "coordinates": [161.40481194382562, -0.020019067208617614]}}, {"type": "Feature", "properties": {"norad_id": 38098, "name": "INTELSAT 22 (IS-22)", "group": "intelsat", "lat": 0.018249097559767495, "lon": 53.52761344193894, "alt_km": 35791.927882424636, "timestamp": "2025-12-20T16:47:35.958956+00:00", "meta": {"OBJECT_NAME": "INTELSAT 22 (IS-22)", "OBJECT_ID": "2012-011A", "EPOCH": "2025-12-20T10:08:56.317056", "MEAN_MOTION": 1.00270562, "ECCENTRICITY": 0.0001806, "INCLINATION": 0.0147, "RA_OF_ASC_NODE": 41.4963, "ARG_OF_PERICENTER": 236.1011, "MEAN_ANOMALY": 35.9883, "EPHEMERIS_TYPE": 0, "CLASSIFICATION_TYPE": "U", "NORAD_CAT_ID": 38098, "ELEMENT_SET_NO": 999, "REV_AT_EPOCH": 539, "BSTAR": 0, "MEAN_MOTION_DOT": -3.5e-07, "MEAN_MOTION_DDOT": 0}, "tle": {"line1": "1 38098U 12011A   25354.42287404 -.00000035  00000+0  00000+0 0  9990", "line2": "2 38098   0.0147  41.4963 0001806 236.1011  35.9883  1.00270562  5394"}}, "geometry": {"type": "Point", "coordinates": [53.52761344193894, 0.018249097559767495]}}, {"type": "Feature", "properties": {"norad_id": 38356, "name": "INTELSAT 19 (IS-19)", "group": "intelsat", "lat": 0.02175480648144193, "lon": 147.39201375967752, "alt_km": 35791.76265722534, "timestamp": "2025-12-20T16:47:35.958968+00:00", "meta": {"OBJECT_NAME": "INTELSAT 19 (IS-19)", "OBJECT_ID": "2012-030A", "EPOCH": "2025-12-20T11:32:38.876928", "MEAN_MOTION": 1.00271305, "ECCENTRICITY": 0.0002743, "INCLINATION": 0.0116, "RA_OF_ASC_NODE": 4.2995, "ARG_OF_PERICENTER": 261.5808, "MEAN_ANOMALY": 162.5958, "EPHEMERIS_TYPE": 0, "CLASSIFICATION_TYPE": "U", "NORAD_CAT_ID": 38356, "ELEMENT_SET_NO": 999, "REV_AT_EPOCH": 4865, "BSTAR": 0, "MEAN_MOTION_DOT": -3.3e-07, "MEAN_MOTION_DDOT": 0}, "tle": {"line1": "1 38356U 12030A   25354.48100552 -.00000033  00000+0  00000+0 0  9990", "line2": "2 38356   0.0116   4.2995 0002743 261.5808 162.5958  1.00271305 48658"}}, "geometry": {"type": "Point", "coordinates": [147.39201375967752, 0.02175480648144193]}}, {"type": "Feature", "properties": {"norad_id": 38740, "name": "INTELSAT 20 (IS-20)", "group": "intelsat", "lat": 0.0038896539657136994, "lon": 49.88094646635761, "alt_km": 35796.05068551633, "timestamp": "2025-12-20T16:47:35.958980+00:00", "meta": {"OBJECT_NAME": "INTELSAT 20 (IS-20)", "OBJECT_ID": "2012-043A", "EPOCH": "2025-12-20T10:07:56.413344", "MEAN_MOTION": 1.00270417, "ECCENTRICITY": 0.0003382, "INCLINATION": 0.0114, "RA_OF_ASC_NODE": 99.7077, "ARG_OF_PERICENTER": 82.6812, "MEAN_ANOMALY": 127.3428, "EPHEMERIS_TYPE": 0, "CLASSIFICATION_TYPE": "U", "NORAD_CAT_ID": 38740, "ELEMENT_SET_NO": 999, "REV_AT_EPOCH": 4895, "BSTAR": 0, "MEAN_MOTION_DOT": 0, "MEAN_MOTION_DDOT": 0}, "tle": {"line1": "1 38740U 12043A   25354.42218071  .00000000  00000+0  00000+0 0  9994", "line2": "2 38740   0.0114  99.7077 0003382  82.6812 127.3428  1.00270417 48957"}}, "geometry": {"type": "Point", "coordinates": [49.88094646635761, 0.0038896539657136994]}}, {"type": "Feature", "properties": {"norad_id": 38749, "name": "INTELSAT 21 (IS-21)", "group": "intelsat", "lat": -0.020086354500477115, "lon": -76.57188634785123, "alt_km": 35780.092783025066, "timestamp": "2025-12-20T16:47:35.958992+00:00", "meta": {"OBJECT_NAME": "INTELSAT 21 (IS-21)", "OBJECT_ID": "2012-045A", "EPOCH": "2025-12-20T07:07:38.476704", "MEAN_MOTION": 1.00272501, "ECCENTRICITY": 0.0001506, "INCLINATION": 0.0258, "RA_OF_ASC_NODE": 288.9022, "ARG_OF_PERICENTER": 330.5878, "MEAN_ANOMALY": 238.5531, "EPHEMERIS_TYPE": 0, "CLASSIFICATION_TYPE": "U", "NORAD_CAT_ID": 38749, "ELEMENT_SET_NO": 999, "REV_AT_EPOCH": 4873, "BSTAR": 0, "MEAN_MOTION_DOT": -2.61e-06, "MEAN_MOTION_DDOT": 0}, "tle": {"line1": "1 38749U 12045A   25354.29697311 -.00000261  00000+0  00000+0 0  9998", "line2": "2 38749   0.0258 288.9022 0001506 330.5878 238.5531  1.00272501 48732"}}, "geometry": {"type": "Point", "coordinates": [-76.57188634785123, -0.020086354500477115]}}, {"type": "Feature", "properties": {"norad_id": 38867, "name": "INTELSAT 23 (IS-23)", "group": "intelsat", "lat": -0.03391548293210523, "lon": -71.55705006910571, "alt_km": 35785.03067382896, "timestamp": "2025-12-20T16:47:35.959004+00:00", "meta": {"OBJECT_NAME": "INTELSAT 23 (IS-23)", "OBJECT_ID": "2012-057A", "EPOCH": "2025-12-20T07:50:32.071776", "MEAN_MOTION": 1.00268078, "ECCENTRICITY": 5.44e-05, "INCLINATION": 0.0152, "RA_OF_ASC_NODE": 45.7902, "ARG_OF_PERICENTER": 264.189, "MEAN_ANOMALY": 203.8466, "EPHEMERIS_TYPE": 0, "CLASSIFICATION_TYPE": "U", "NORAD_CAT_ID": 38867, "ELEMENT_SET_NO": 999, "REV_AT_EPOCH": 4816, "BSTAR": 0, "MEAN_MOTION_DOT": -2.61e-06, "MEAN_MOTION_DDOT": 0}, "tle": {"line1": "1 38867U 12057A   25354.32676009 -.00000261  00000+0  00000+0 0  9997", "line2": "2 38867   0.0152  45.7902 0000544 264.1890 203.8466  1.00268078 48162"}}, "geometry": {"type": "Point", "coordinates": [-71.55705006910571, -0.03391548293210523]}}, {"type": "Feature", "properties": {"norad_id": 39360, "name": "FM-6", "group": "intelsat", "lat": -0.006846927573426656, "lon": -134.7158025761547, "alt_km": 35778.42062412313, "timestamp": "2025-12-20T16:47:35.959016+00:00", "meta": {"OBJECT_NAME": "FM-6", "OBJECT_ID": "2013-058A", "EPOCH": "2025-12-20T09:09:38.435040", "MEAN_MOTION": 1.00270583, "ECCENTRICITY": 0.0002777, "INCLINATION": 0.0124, "RA_OF_ASC_NODE": 66.1155, "ARG_OF_PERICENTER": 112.4546, "MEAN_ANOMALY": 291.8986, "EPHEMERIS_TYPE": 0, "CLASSIFICATION_TYPE": "U", "NORAD_CAT_ID": 39360, "ELEMENT_SET_NO": 999, "REV_AT_EPOCH": 4428, "BSTAR": 0, "MEAN_MOTION_DOT": 7e-08, "MEAN_MOTION_DDOT": 0}, "tle": {"line1": "1 39360U 13058A   25354.38169485  .00000007  00000+0  00000+0 0  9996", "line2": "2 39360   0.0124  66.1155 0002777 112.4546 291.8986  1.00270583 44287"}}, "geometry": {"type": "Point", "coordinates": [-134.7158025761547, -0.006846927573426656]}}, {"type": "Feature", "properties": {"norad_id": 40271, "name": "INTELSAT 30 (IS-30)", "group": "intelsat", "lat": -0.032394736782280636, "lon": -113.61845238595893, "alt_km": 35790.608050487295, "timestamp": "2025-12-20T16:47:35.959028+00:00", "meta": {"OBJECT_NAME": "INTELSAT 30 (IS-30)", "OBJECT_ID": "2014-062A", "EPOCH": "2025-12-20T12:34:47.341056", "MEAN_MOTION": 1.00276751, "ECCENTRICITY": 0.0001464, "INCLINATION": 0.0135, "RA_OF_ASC_NODE": 19.8548, "ARG_OF_PERICENTER": 64.3977, "MEAN_ANOMALY": 98.7545, "EPHEMERIS_TYPE": 0, "CLASSIFICATION_TYPE": "U", "NORAD_CAT_ID": 40271, "ELEMENT_SET_NO": 999, "REV_AT_EPOCH": 500, "BSTAR": 0, "MEAN_MOTION_DOT": -1.28e-06, "MEAN_MOTION_DDOT": 0}, "tle": {"line1": "1 40271U 14062A   25354.52415904 -.00000128  00000+0  00000+0 0  9996", "line2": "2 40271   0.0135  19.8548 0001464  64.3977  98.7545  1.00276751  5003"}}, "geometry": {"type": "Point", "coordinates": [-113.61845238595893, -0.032394736782280636]}}, {"type": "Feature", "properties": {"norad_id": 40333, "name": "DIRECTV 14", "group": "intelsat", "lat": -0.04338026841728824, "lon": -117.79295445505463, "alt_km": 35786.629037995226, "timestamp": "2025-12-20T16:47:35.959039+00:00", "meta": {"OBJECT_NAME": "DIRECTV 14", "OBJECT_ID": "2014-078B", "EPOCH": "2025-12-20T12:09:57.950208", "MEAN_MOTION": 1.00270832, "ECCENTRICITY": 3.93e-05, "INCLINATION": 0.0187, "RA_OF_ASC_NODE": 347.3477, "ARG_OF_PERICENTER": 155.8476, "MEAN_ANOMALY": 29.4191, "EPHEMERIS_TYPE": 0, "CLASSIFICATION_TYPE": "U", "NORAD_CAT_ID": 40333, "ELEMENT_SET_NO": 999, "REV_AT_EPOCH": 4025, "BSTAR": 0, "MEAN_MOTION_DOT": -1.02e-06, "MEAN_MOTION_DDOT": 0}, "tle": {"line1": "1 40333U 14078B   25354.50692072 -.00000102  00000+0  00000+0 0  9995", "line2": "2 40333   0.0187 347.3477 0000393 155.8476  29.4191  1.00270832 40257"}}, "geometry": {"type": "Point", "coordinates": [-117.79295445505463, -0.04338026841728824]}}, {"type": "Feature", "properties": {"norad_id": 40663, "name": "DIRECTV 15", "group": "intelsat", "lat": -0.040485022331132416, "lon": -121.45854841749684, "alt_km": 35787.160059226844, "timestamp": "2025-12-20T16:47:35.959050+00:00", "meta": {"OBJECT_NAME": "DIRECTV 15", "OBJECT_ID": "2015-026A", "EPOCH": "2025-12-20T12:06:43.367904", "MEAN_MOTION": 1.00269898, "ECCENTRICITY": 3.21e-05, "INCLINATION": 0.0255, "RA_OF_ASC_NODE": 13.1615, "ARG_OF_PERICENTER": 112.234, "MEAN_ANOMALY": 42.7419, "EPHEMERIS_TYPE": 0, "CLASSIFICATION_TYPE": "U", "NORAD_CAT_ID": 40663, "ELEMENT_SET_NO": 999, "REV_AT_EPOCH": 3867, "BSTAR": 0, "MEAN_MOTION_DOT": 0, "MEAN_MOTION_DDOT": 0}, "tle": {"line1": "1 40663U 15026A   25354.50466861  .00000000  00000+0  00000+0 0  9996", "line2": "2 40663   0.0255  13.1615 0000321 112.2340  42.7419  1.00269898 38673"}}, "geometry": {"type": "Point", "coordinates": [-121.45854841749684, -0.040485022331132416]}}]}